{
  "norad_id": 49102,
  "name": "ONEWEB-0316",
  "history": [
    {
      "epoch": "2026-03-28T22:58:40.427040Z",
      "apogee_km": 1190.9924638809116,
      "perigee_km": 1188.4885559279846,
      "latitude_deg": -6.872000281960247e-05,
      "longitude_deg": -179.63355310069426,
      "height_km": 1192.3850264587034,
      "semi_major_axis_km": 7567.877509904448,
      "eccentricity": 0.00016543,
      "inclination_deg": 87.9237,
      "raan_deg": 351.4053,
      "arg_perigee_deg": 78.3463,
      "mean_anomaly_deg": 281.7854,
      "mean_motion_rev_day": 13.18686684
    },
    {
      "epoch": "2026-03-29T04:26:27.517344Z",
      "apogee_km": 1190.9925959767752,
      "perigee_km": 1188.4815753551502,
      "latitude_deg": 7.002068233237125e-05,
      "longitude_deg": 98.15068163172067,
      "height_km": 1192.3837996747393,
      "semi_major_axis_km": 7567.874085665962,
      "eccentricity": 0.0001659,
      "inclination_deg": 87.9236,
      "raan_deg": 351.3601,
      "arg_perigee_deg": 78.4835,
      "mean_anomaly_deg": 281.6484,
      "mean_motion_rev_day": 13.18687579
    },
    {
      "epoch": "2026-03-30T04:06:51.938208Z",
      "apogee_km": 1191.0021834170475,
      "perigee_km": 1188.4745130507363,
      "latitude_deg": -2.0072521682805394e-05,
      "longitude_deg": 101.881091339521,
      "height_km": 1192.4056832618169,
      "semi_major_axis_km": 7567.875348233892,
      "eccentricity": 0.000167,
      "inclination_deg": 87.9235,
      "raan_deg": 351.1645,
      "arg_perigee_deg": 79.5132,
      "mean_anomaly_deg": 280.6188,
      "mean_motion_rev_day": 13.18687249
    },
    {
      "epoch": "2026-03-30T05:56:07.644480Z",
      "apogee_km": 1190.9992284800046,
      "perigee_km": 1188.4741317478984,
      "latitude_deg": -1.1332282408627797e-05,
      "longitude_deg": 74.47576191756474,
      "height_km": 1192.4079634416214,
      "semi_major_axis_km": 7567.873680113951,
      "eccentricity": 0.00016683,
      "inclination_deg": 87.9235,
      "raan_deg": 351.1494,
      "arg_perigee_deg": 79.6845,
      "mean_anomaly_deg": 280.4475,
      "mean_motion_rev_day": 13.18687685
    },
    {
      "epoch": "2026-03-30T11:23:54.841920Z",
      "apogee_km": 1191.008829053132,
      "perigee_km": 1188.4646612574852,
      "latitude_deg": 4.040330639282923e-05,
      "longitude_deg": -7.740353924826193,
      "height_km": 1192.4086588423108,
      "semi_major_axis_km": 7567.873745155308,
      "eccentricity": 0.00016809,
      "inclination_deg": 87.9235,
      "raan_deg": 351.1043,
      "arg_perigee_deg": 79.7929,
      "mean_anomaly_deg": 280.3393,
      "mean_motion_rev_day": 13.18687668
    },
    {
      "epoch": "2026-03-30T18:40:57.778464Z",
      "apogee_km": 1191.008185438459,
      "perigee_km": 1188.469314481863,
      "latitude_deg": 7.917318757006221e-05,
      "longitude_deg": -117.36193714674074,
      "height_km": 1192.4114681530234,
      "semi_major_axis_km": 7567.875749960161,
      "eccentricity": 0.00016774,
      "inclination_deg": 87.9235,
      "raan_deg": 351.0441,
      "arg_perigee_deg": 79.8083,
      "mean_anomaly_deg": 280.3239,
      "mean_motion_rev_day": 13.18687144
    },
    {
      "epoch": "2026-03-31T11:04:19.293024Z",
      "apogee_km": 1191.0141045137561,
      "perigee_km": 1188.4622170095463,
      "latitude_deg": -3.9587569895118254e-06,
      "longitude_deg": -4.010068270149693,
      "height_km": 1192.4045870520981,
      "semi_major_axis_km": 7567.8751607616505,
      "eccentricity": 0.0001686,
      "inclination_deg": 87.9236,
      "raan_deg": 350.9087,
      "arg_perigee_deg": 79.5737,
      "mean_anomaly_deg": 280.5585,
      "mean_motion_rev_day": 13.18687298
    },
    {
      "epoch": "2026-04-01T10:44:43.692288Z",
      "apogee_km": 1191.0116984583574,
      "perigee_km": 1188.4613250848897,
      "latitude_deg": -9.542556741764225e-06,
      "longitude_deg": -0.27956457140116614,
      "height_km": 1192.4091339967006,
      "semi_major_axis_km": 7567.873511771623,
      "eccentricity": 0.0001685,
      "inclination_deg": 87.9236,
      "raan_deg": 350.7131,
      "arg_perigee_deg": 79.8503,
      "mean_anomaly_deg": 280.2819,
      "mean_motion_rev_day": 13.18687729
    },
    {
      "epoch": "2026-04-02T15:52:55.318368Z",
      "apogee_km": 1191.0147953677915,
      "perigee_km": 1188.4598809912222,
      "latitude_deg": -5.245210684646975e-05,
      "longitude_deg": -78.7654030912462,
      "height_km": 1192.4128269991145,
      "semi_major_axis_km": 7567.874338179507,
      "eccentricity": 0.0001688,
      "inclination_deg": 87.9236,
      "raan_deg": 350.4723,
      "arg_perigee_deg": 79.9991,
      "mean_anomaly_deg": 280.1331,
      "mean_motion_rev_day": 13.18687513
    },
    {
      "epoch": "2026-04-02T23:09:58.138272Z",
      "apogee_km": 1191.0050331163038,
      "perigee_km": 1188.463590572359,
      "latitude_deg": 4.129317658493617e-05,
      "longitude_deg": 171.61360286169145,
      "height_km": 1192.413634553957,
      "semi_major_axis_km": 7567.871311844331,
      "eccentricity": 0.00016791,
      "inclination_deg": 87.9235,
      "raan_deg": 350.4122,
      "arg_perigee_deg": 80.121,
      "mean_anomaly_deg": 280.0112,
      "mean_motion_rev_day": 13.18688304
    },
    {
      "epoch": "2026-04-03T17:22:35.405760Z",
      "apogee_km": 1191.0044320064571,
      "perigee_km": 1188.4676809579241,
      "latitude_deg": -3.154170519377784e-05,
      "longitude_deg": -102.4398535816575,
      "height_km": 1192.4186303298738,
      "semi_major_axis_km": 7567.873056482191,
      "eccentricity": 0.0001676,
      "inclination_deg": 87.9229,
      "raan_deg": 350.2619,
      "arg_perigee_deg": 80.2511,
      "mean_anomaly_deg": 279.881,
      "mean_motion_rev_day": 13.18687848
    },
    {
      "epoch": "2026-04-04T06:07:25.395456Z",
      "apogee_km": 1191.0053473109601,
      "perigee_km": 1188.4632993334562,
      "latitude_deg": 5.477020292853868e-06,
      "longitude_deg": 65.72314739388074,
      "height_km": 1192.4256306628806,
      "semi_major_axis_km": 7567.871323322208,
      "eccentricity": 0.00016795,
      "inclination_deg": 87.9229,
      "raan_deg": 350.1567,
      "arg_perigee_deg": 80.6714,
      "mean_anomaly_deg": 279.4608,
      "mean_motion_rev_day": 13.18688301
    },
    {
      "epoch": "2026-04-05T09:26:21.188256Z",
      "apogee_km": 1191.0013303925207,
      "perigee_km": 1188.467607024797,
      "latitude_deg": 5.8734139561092247e-05,
      "longitude_deg": 14.643170262298838,
      "height_km": 1192.4301513671683,
      "semi_major_axis_km": 7567.8714687086585,
      "eccentricity": 0.0001674,
      "inclination_deg": 87.9227,
      "raan_deg": 349.931,
      "arg_perigee_deg": 80.841,
      "mean_anomaly_deg": 279.2912,
      "mean_motion_rev_day": 13.18688263
    },
    {
      "epoch": "2026-04-05T18:32:39.763680Z",
      "apogee_km": 1190.9965630212937,
      "perigee_km": 1188.470407853256,
      "latitude_deg": -8.896939970501676e-05,
      "longitude_deg": -122.3834689749137,
      "height_km": 1192.4312120770091,
      "semi_major_axis_km": 7567.8704854372745,
      "eccentricity": 0.0001669,
      "inclination_deg": 87.9227,
      "raan_deg": 349.8557,
      "arg_perigee_deg": 80.9058,
      "mean_anomaly_deg": 279.2262,
      "mean_motion_rev_day": 13.1868852
    },
    {
      "epoch": "2026-04-06T05:28:14.087712Z",
      "apogee_km": 1190.995414680262,
      "perigee_km": 1188.4725892030556,
      "latitude_deg": 4.28160535897074e-07,
      "longitude_deg": 73.1843933432007,
      "height_km": 1192.4472648785857,
      "semi_major_axis_km": 7567.8710019416585,
      "eccentricity": 0.00016668,
      "inclination_deg": 87.9226,
      "raan_deg": 349.7653,
      "arg_perigee_deg": 81.6083,
      "mean_anomaly_deg": 278.5238,
      "mean_motion_rev_day": 13.18688385
    },
    {
      "epoch": "2026-04-07T10:36:25.645536Z",
      "apogee_km": 1191.0157421085587,
      "perigee_km": 1188.4543201409033,
      "latitude_deg": 1.0582884672636596e-05,
      "longitude_deg": -5.301162438230096,
      "height_km": 1192.4458387470236,
      "semi_major_axis_km": 7567.872031124731,
      "eccentricity": 0.00016923,
      "inclination_deg": 87.9224,
      "raan_deg": 349.5245,
      "arg_perigee_deg": 81.6268,
      "mean_anomaly_deg": 278.5056,
      "mean_motion_rev_day": 13.18688116
    },
    {
      "epoch": "2026-04-07T17:53:28.501728Z",
      "apogee_km": 1191.0080266787472,
      "perigee_km": 1188.4606811810154,
      "latitude_deg": 1.7390235623796314e-05,
      "longitude_deg": -114.92241233705468,
      "height_km": 1192.4455928674518,
      "semi_major_axis_km": 7567.8713539298815,
      "eccentricity": 0.0001683,
      "inclination_deg": 87.9224,
      "raan_deg": 349.4643,
      "arg_perigee_deg": 81.5991,
      "mean_anomaly_deg": 278.5332,
      "mean_motion_rev_day": 13.18688293
    },
    {
      "epoch": "2026-04-08T04:49:02.807616Z",
      "apogee_km": 1191.0156102970504,
      "perigee_km": 1188.4538857103516,
      "latitude_deg": 6.974373655892127e-06,
      "longitude_deg": 80.64552179252175,
      "height_km": 1192.4461199313089,
      "semi_major_axis_km": 7567.871748003701,
      "eccentricity": 0.00016925,
      "inclination_deg": 87.9224,
      "raan_deg": 349.3739,
      "arg_perigee_deg": 81.6533,
      "mean_anomaly_deg": 278.4791,
      "mean_motion_rev_day": 13.1868819
    },
    {
      "epoch": "2026-04-09T09:57:14.585760Z",
      "apogee_km": 1191.0240619607448,
      "perigee_km": 1188.4600645341152,
      "latitude_deg": -2.673444326262544e-05,
      "longitude_deg": 2.159043451604822,
      "height_km": 1192.4608322530758,
      "semi_major_axis_km": 7567.879063247429,
      "eccentricity": 0.0001694,
      "inclination_deg": 87.9224,
      "raan_deg": 349.1331,
      "arg_perigee_deg": 81.9948,
      "mean_anomaly_deg": 278.1376,
      "mean_motion_rev_day": 13.18686278
    }
  ]
}